TRANSIT 16 [?]          
1 02807U 67048A   22313.64107356  .00000165  00000+0  24210-3 0  9998
2 02807  89.6637  31.4803 0021823 137.7555 340.5346 13.50337875730362
TRANSIT 17 [?]          
1 02965U 67092A   22313.89778108  .00000129  00000+0  17571-3 0  9990
2 02965  89.2307 112.1917 0045982 273.5297 200.2990 13.53049005718309
TRANSIT 18 [?]          
1 03133U 68012A   22313.91706378  .00000117  00000+0  16330-3 0  9993
2 03133  90.0064 271.6489 0074004 198.6230 223.9818 13.51175421416736
NNSS 19 [?]             
1 04507U 70067A   22313.37118143  .00000187  00000+0  25357-3 0  9995
2 04507  89.9329 238.2457 0171740 325.1394  33.8602 13.50857560570112
NNSS O-20 [?]           
1 06909U 73081A   22313.97019739  .00000169  00000+0  16521-3 0  9992
2 06909  89.8178 274.6704 0154735 220.6391 138.3142 13.70716059649229
TRANSAT [?]             
1 10457U 77106A   22313.87797637  .00000081  00000+0  11370-3 0  9996
2 10457  89.6716 117.8111 0024301 204.2001 274.2591 13.48695217215267
NOVA I [?]              
1 12458U 81044A   22313.89347314  .00000057  00000+0  11472-3 0  9996
2 12458  89.8805 106.0612 0013881 343.2144 128.4603 13.23079866  2582
NOVA 3 [?]              
1 15362U 84110A   22313.87489802  .00000037  00000+0  68880-4 0  9991
2 15362  90.1048  68.3452 0031517 198.5729 277.7157 13.22846189837735
OSCAR 30 [?]            
1 15935U 85066A   22313.88098441  .00000093  00000+0  15172-3 0  9991
2 15935  90.1800  80.4277 0169453  28.8310  87.8255 13.35773581813887
OSCAR 24 [?]            
1 15936U 85066B   22313.89556457  .00000084  00000+0  13601-3 0  9994
2 15936  90.1780  72.3540 0170108  34.5593  77.2824 13.35632997815730
POLAR BEAR [?]          
1 17070U 86088A   22313.56558206  .00000134  00000+0  12923-3 0  9990
2 17070  89.5746 230.9925 0037247 287.3845 247.1856 13.74890870804615
OSCAR 27 [?]            
1 18361U 87080A   22313.77827487  .00000142  00000+0  22219-3 0  9998
2 18361  90.3409  39.0756 0103492 216.5565 142.8489 13.44584004723848
OSCAR 29 [?]            
1 18362U 87080B   22314.15872098  .00000128  00000+0  20116-3 0  9998
2 18362  90.3422  39.4303 0104648 236.2977 142.4785 13.44171495723735
OSCAR 23 [?]            
1 19070U 88033A   22313.81436322  .00000120  00000+0  22103-3 0  9992
2 19070  90.3258 341.4309 0191755  79.7302  91.2395 13.27537475672734
OSCAR 32 [?]            
1 19071U 88033B   22313.86318080  .00000085  00000+0  15207-3 0  9995
2 19071  90.3260 341.5210 0189950  67.5515 104.0669 13.27716892672846
NOVA 11 [?]             
1 19223U 88052A   22313.86909397  .00000112  00000+0  24687-3 0  9995
2 19223  89.9768  80.4931 0029202 243.1544 231.7720 13.22757355660238
OSCAR 25 [?]            
1 19419U 88074A   22313.64253278  .00000136  00000+0  22051-3 0  9991
2 19419  90.0109  17.9916 0095141 226.0786 247.8485 13.42313046674911
OSCAR 31 [?]            
1 19420U 88074B   22313.58378194  .00000131  00000+0  21225-3 0  9998
2 19420  90.0121  18.1830 0093459 220.3112 266.9012 13.42322442675015
